{
  "norad_id": 59731,
  "name": "STARLINK-31817",
  "history": [
    {
      "epoch": "2026-03-28T15:43:26.644800Z",
      "apogee_km": 484.02727729396884,
      "perigee_km": 482.0922825780908,
      "latitude_deg": -8.927075289114508e-06,
      "longitude_deg": 14.201270122877515,
      "height_km": 482.8010181199118,
      "semi_major_axis_km": 6861.196779936029,
      "eccentricity": 0.00014101,
      "inclination_deg": 43.0012,
      "raan_deg": 76.1348,
      "arg_perigee_deg": 272.1094,
      "mean_anomaly_deg": 87.9596,
      "mean_motion_rev_day": 15.27576432
    }
  ]
}